{
  "type": "FeatureCollection",
  "features": [
    {
      "type": "Feature",
      "properties": {},
      "geometry": {
        "type": "Polygon",
        "coordinates": [
          [
            [-0.262838, 51.649476],
            [-0.524196, 51.573433],
            [-0.511402, 51.479434],
            [-0.07276, 51.454385],
            [-0.006354, 51.470327],
            [0.001566, 51.608633],
            [-0.000871, 51.682351],
            [0.004612, 51.681218],
            [-0.262838, 51.649476]
          ]
        ]
      }
    }
  ]
}
